STARLINK-33790
1 64029U 25102H   26061.16800924  .00151048  00000+0  12265-1 0  9991
2 64029  70.0015 133.4907 0009123 275.6242  84.3877 14.98717436 44876
